NORAD_CAT_ID,OBJECT_NAME,OBJECT_TYPE,EPOCH,MEAN_MOTION,ECCENTRICITY,INCLINATION,RA_OF_ASC_NODE,ARG_OF_PERICENTER,MEAN_ANOMALY,BSTAR,MEAN_MOTION_DOT,MEAN_MOTION_DDOT,TLE_LINE0,TLE_LINE1,TLE_LINE2,SEMIMAJOR_AXIS,PERIOD,APOGEE,PERIGEE,DECAYED
52268.0,STARLINK-3746,PAYLOAD,2023-08-11 09:58:37,15.08843703,0.0001368,53.2174,14.6742,75.393,284.7214,0.00035342,5.342e-05,0.0,0 STARLINK-3746,1 52268U 22041H   23223.41571220  .00005342  00000-0  35342-3 0  9990,2 52268  53.2174  14.6742 0001368  75.3930 284.7214 15.08843703 73485,6917.869,95.437,540.68,538.788,0.0
52268.0,STARLINK-3746,PAYLOAD,2023-08-11 19:30:55,15.0885765,0.0001012,53.2173,12.889,79.7343,280.3764,0.00064565,0.00010007,0.0,0 STARLINK-3746,1 52268U 22041H   23223.81314647  .00010007  00000-0  64565-3 0  9995,2 52268  53.2173  12.8890 0001012  79.7343 280.3764 15.08857650 73545,6917.826,95.436,540.392,538.991,0.0
52268.0,STARLINK-3746,PAYLOAD,2023-08-12 09:49:24,15.08842397,0.0001495,53.2186,10.2142,78.1422,281.9738,0.00014715,2.055e-05,0.0,0 STARLINK-3746,1 52268U 22041H   23224.40931187  .00002055  00000-0  14715-3 0  9991,2 52268  53.2186  10.2142 0001495  78.1422 281.9738 15.08842397 73637,6917.873,95.437,540.772,538.704,0.0
52268.0,STARLINK-3746,PAYLOAD,2023-08-13 16:01:44,15.08845436,0.0001034,53.2175,4.5639,85.9036,274.2074,0.00020259,2.938e-05,0.0,0 STARLINK-3746,1 52268U 22041H   23225.66787090  .00002938  00000-0  20259-3 0  9992,2 52268  53.2175   4.5639 0001034  85.9036 274.2074 15.08845436 73824,6917.864,95.437,540.444,539.013,0.0
52268.0,STARLINK-3746,PAYLOAD,2023-08-14 09:30:58,15.08839722,9.99e-05,53.2179,1.293,84.0022,276.1084,0.00017372,2.478e-05,0.0,0 STARLINK-3746,1 52268U 22041H   23226.39651383  .00002478  00000-0  17372-3 0  9999,2 52268  53.2179   1.2930 0000999  84.0022 276.1084 15.08839722 73935,6917.881,95.438,540.437,539.055,0.0
52268.0,STARLINK-3746,PAYLOAD,2023-08-15 10:57:08,15.08843319,0.0001011,53.2178,356.5355,90.6531,269.4576,0.00012033,1.628e-05,0.0,0 STARLINK-3746,1 52268U 22041H   23227.45635131  .00001628  00000-0  12033-3 0  9995,2 52268  53.2178 356.5355 0001011  90.6531 269.4576 15.08843319 74091,6917.87,95.437,540.435,539.036,0.0
52268.0,STARLINK-3746,PAYLOAD,2023-08-16 12:23:19,15.08831207,0.000121,53.2169,351.7802,105.8559,254.2567,-8.2494e-05,-1.6e-05,0.0,0 STARLINK-3746,1 52268U 22041H   23228.51619574 -.00001600  00000-0 -82494-4 0  9997,2 52268  53.2169 351.7802 0001210 105.8559 254.2567 15.08831207 74258,6917.907,95.438,540.609,538.935,0.0
52268.0,STARLINK-3746,PAYLOAD,2023-08-17 01:06:23,15.0884401,8.74e-05,53.2179,349.3995,94.4937,265.6155,-3.1587e-05,-7.9e-06,0.0,0 STARLINK-3746,1 52268U 22041H   23229.04610865 -.00000790  00000-0 -31587-4 0  9996,2 52268  53.2179 349.3995 0000874  94.4937 265.6155 15.08844010 74337,6917.868,95.437,540.338,539.129,0.0
52268.0,STARLINK-3746,PAYLOAD,2023-08-17 17:00:13,15.08872471,9.86e-05,53.2175,346.4257,89.8559,270.2546,-0.00037936,-6.326e-05,0.0,0 STARLINK-3746,1 52268U 22041H   23229.70849300 -.00006326  00000-0 -37936-3 0  9991,2 52268  53.2175 346.4257 0000986  89.8559 270.2546 15.08872471 74433,6917.781,95.436,540.328,538.964,0.0
52268.0,STARLINK-3746,PAYLOAD,2023-08-18 00:57:11,15.08838806,0.0001611,53.2177,344.9392,79.0484,281.069,0.00022141,3.237e-05,0.0,0 STARLINK-3746,1 52268U 22041H   23230.03971436  .00003237  00000-0  22141-3 0  9993,2 52268  53.2177 344.9392 0001611  79.0484 281.0690 15.08838806 74481,6917.884,95.438,540.864,538.635,0.0
52268.0,STARLINK-3746,PAYLOAD,2023-08-18 13:40:16,15.08833517,0.000108,53.2176,342.5602,79.6076,280.5038,9.2646e-05,1.187e-05,0.0,0 STARLINK-3746,1 52268U 22041H   23230.56963767  .00001187  00000-0  92646-4 0  9999,2 52268  53.2176 342.5602 0001080  79.6076 280.5038 15.08833517 74564,6917.9,95.438,540.512,539.018,0.0
52268.0,STARLINK-3746,PAYLOAD,2023-08-19 11:55:40,15.08843438,0.000112,53.217,338.3977,74.0019,286.1096,0.00025545,3.78e-05,0.0,0 STARLINK-3746,1 52268U 22041H   23231.49699456  .00003780  00000-0  25545-3 0  9997,2 52268  53.2170 338.3977 0001120  74.0019 286.1096 15.08843438 74702,6917.87,95.437,540.51,538.96,0.0
52268.0,STARLINK-3746,PAYLOAD,2023-08-20 11:46:27,15.08843378,0.0001085,53.2171,333.9368,75.674,284.4372,0.00024243,3.573e-05,0.0,0 STARLINK-3746,1 52268U 22041H   23232.49059630  .00003573  00000-0  24243-3 0  9996,2 52268  53.2171 333.9368 0001085  75.6740 284.4372 15.08843378 74853,6917.87,95.437,540.486,538.984,0.0
52268.0,STARLINK-3746,PAYLOAD,2023-08-21 11:37:14,15.08843983,0.0001149,53.2174,329.473,106.1358,253.976,0.00016898,2.403e-05,0.0,0 STARLINK-3746,1 52268U 22041H   23233.48419775  .00002403  00000-0  16898-3 0  9994,2 52268  53.2174 329.4730 0001149 106.1358 253.9760 15.08843983 75007,6917.868,95.437,540.528,538.938,0.0
52268.0,STARLINK-3746,PAYLOAD,2023-08-22 11:28:01,15.08843911,0.000116,53.2172,325.0169,80.5583,279.554,0.00016494,2.338e-05,0.0,0 STARLINK-3746,1 52268U 22041H   23234.47779789  .00002338  00000-0  16494-3 0  9997,2 52268  53.2172 325.0169 0001160  80.5583 279.5540 15.08843911 75158,6917.868,95.437,540.536,538.931,0.0
52268.0,STARLINK-3746,PAYLOAD,2023-08-23 12:54:11,15.08848154,0.0001417,53.2183,320.2608,92.8587,267.2567,0.00015122,2.12e-05,0.0,0 STARLINK-3746,1 52268U 22041H   23235.53763498  .00002120  00000-0  15122-3 0  9991,2 52268  53.2183 320.2608 0001417  92.8587 267.2567 15.08848154 75315,6917.855,95.437,540.701,538.74,0.0
52268.0,STARLINK-3746,PAYLOAD,2023-08-24 11:09:36,15.08833548,0.0001284,53.2169,316.0959,74.7404,285.373,-3.0509e-05,-7.73e-06,0.0,0 STARLINK-3746,1 52268U 22041H   23236.46500208 -.00000773  00000-0 -30509-4 0  9993,2 52268  53.2169 316.0959 0001284  74.7404 285.3730 15.08833548 74234,6917.9,95.438,540.653,538.877,0.0
52268.0,STARLINK-3746,PAYLOAD,2023-08-25 11:00:23,15.08844314,0.0001235,53.2175,311.6353,73.5123,286.6005,5.259e-05,5.49e-06,0.0,0 STARLINK-3746,1 52268U 22041H   23237.45860021  .00000549  00000-0  52590-4 0  9998,2 52268  53.2175 311.6353 0001235  73.5123 286.6005 15.08844314 75605,6917.867,95.437,540.587,538.878,0.0
52268.0,STARLINK-3746,PAYLOAD,2023-08-25 12:35:46,15.08845337,0.0001238,53.2174,311.3379,75.696,284.4169,6.0279e-05,6.72e-06,0.0,0 STARLINK-3746,1 52268U 22041H   23237.52483917  .00000672  00000-0  60279-4 0  9991,2 52268  53.2174 311.3379 0001238  75.6960 284.4169 15.08845337 74392,6917.864,95.437,540.586,538.873,0.0
52268.0,STARLINK-3746,PAYLOAD,2023-08-25 14:11:09,15.08847949,0.000121,53.2175,311.0406,76.6088,283.5039,7.6811e-05,9.35e-06,0.0,0 STARLINK-3746,1 52268U 22041H   23237.59107673  .00000935  00000-0  76811-4 0  9991,2 52268  53.2175 311.0406 0001210  76.6088 283.5039 15.08847949 74402,6917.856,95.437,540.558,538.884,0.0
52268.0,STARLINK-3746,PAYLOAD,2023-08-26 10:50:49,15.09092281,0.0001459,53.2175,307.1734,122.6092,237.5041,0.0022189,0.00035449,0.0,0 STARLINK-3746,1 52268U 22041H   23238.45196459  .00035449  00000-0  22189-2 0  9992,2 52268  53.2175 307.1734 0001459 122.6092 237.5041 15.09092281 75757,6917.109,95.422,539.984,537.965,0.0
52268.0,STARLINK-3746,PAYLOAD,2023-08-26 14:01:29,15.09173456,0.0001122,53.2176,306.5777,94.0278,266.0843,0.0028316,0.00045483,0.0,0 STARLINK-3746,1 52268U 22041H   23238.58436364  .00045483  00000-0  28316-2 0  9995,2 52268  53.2176 306.5777 0001122  94.0278 266.0843 15.09173456 74551,6916.861,95.416,539.502,537.95,0.0
52268.0,STARLINK-3746,PAYLOAD,2023-08-26 18:47:39,15.09275798,0.0001197,53.2168,305.6859,71.0043,289.1079,0.0054569,0.00088707,0.0,0 STARLINK-3746,1 52268U 22041H   23238.78309177  .00088707  00000-0  54569-2 0  9993,2 52268  53.2168 305.6859 0001197  71.0043 289.1079 15.09275798 75808,6916.549,95.41,539.242,537.586,0.0
52268.0,STARLINK-3746,PAYLOAD,2023-08-26 20:22:57,15.09356711,0.0001081,53.2173,305.3887,153.3756,206.7292,0.0064377,0.00105181,0.0,0 STARLINK-3746,1 52268U 22041H   23238.84927133  .00105181  00000-0  64377-2 0  9992,2 52268  53.2173 305.3887 0001081 153.3756 206.7292 15.09356711 74591,6916.301,95.405,538.914,537.419,0.0
52268.0,STARLINK-3746,PAYLOAD,2023-08-27 09:05:33,15.0961006,0.0001722,53.2173,303.0069,58.5666,301.5495,0.0078238,0.00129221,0.0,0 STARLINK-3746,1 52268U 22041H   23239.37886280  .00129221  00000-0  78238-2 0  9990,2 52268  53.2173 303.0069 0001722  58.5666 301.5495 15.09610060 75899,6915.528,95.389,538.583,536.202,0.0
52268.0,STARLINK-3746,PAYLOAD,2023-08-27 10:40:47,15.09763754,0.0002011,53.2173,302.7091,144.7975,215.3151,0.0096995,0.00161689,0.0,0 STARLINK-3746,1 52268U 22041H   23239.44499317  .00161689  00000-0  96995-2 0  9993,2 52268  53.2173 302.7091 0002011 144.7975 215.3151 15.09763754 75905,6915.058,95.379,538.314,535.533,0.0
52268.0,STARLINK-3746,PAYLOAD,2023-08-27 20:12:35,15.09969817,8.5e-05,53.2174,300.9224,98.5482,261.5607,0.010082,0.00169213,0.0,0 STARLINK-3746,1 52268U 22041H   23239.84207469  .00169213  00000-0  10082-1 0  9995,2 52268  53.2174 300.9224 0000850  98.5482 261.5607 15.09969817 74740,6914.429,95.366,536.882,535.706,0.0
52268.0,STARLINK-3746,PAYLOAD,2023-08-28 06:00:02,15.10463381,0.0001476,53.2167,299.0867,91.2714,328.2462,-0.0002858,-5.046e-05,0.0,0 STARLINK-3746,1 52268U 22041H   23240.25002315 -.00005046  00000-0 -28580-3 0  9994,2 52268  53.2167 299.0867 0001476  91.2714 328.2462 15.10463381 76037,6912.923,95.335,535.808,533.767,0.0
52268.0,STARLINK-3746,PAYLOAD,2023-08-28 22:00:00,15.10469354,0.0001426,53.2168,296.0864,89.5622,356.9878,0.00093174,0.00015249,0.0,0 STARLINK-3746,1 52268U 22041H   23240.91667824  .00015249  00000-0  93174-3 0  9994,2 52268  53.2168 296.0864 0001426  89.5622 356.9878 15.10469354  5852,6912.905,95.335,535.755,533.784,0.0
52268.0,STARLINK-3746,PAYLOAD,2023-08-29 06:00:00,15.1050797,0.0001495,53.2168,294.5865,91.6088,8.4917,-0.00219,-0.00036598,0.0,0 STARLINK-3746,1 52268U 22041H   23241.25001157 -.00036598  00000-0 -21900-2 0  9992,2 52268  53.2168 294.5865 0001495  91.6088   8.4917 15.10507970 76186,6912.787,95.332,535.685,533.618,0.0
